#dP2022  1  1  0  0  0.00000000     289 d+D   IGS14 FIT AIUB
## 2190 518400.00000000   300.00000000 59580 0.0000000000000
+  116   G01G02G03G04G05G06G07G08G09G10G11G12G13G14G15G16G17
+        G18G19G20G21G22G23G24G25G26G27G28G29G30G31G32R01R02
+        R03R04R05R07R08R09R11R12R13R14R15R17R18R19R20R21R22
+        R24E01E02E03E04E05E07E08E09E11E12E13E14E15E18E19E21
+        E24E25E26E27E30E31E33E36C06C07C08C09C10C11C12C13C14
+        C16C19C20C21C22C23C24C25C26C27C28C29C30C32C33C34C35
+        C36C37C38C39C40C41C42C43C44C45C46J01J02J03  0  0  0
++         5  5  5  5  5  5  5  5  5  5  5  5  5  5  5  5  5
++         5  5  5  5  5  5  5  5  5  5  5  5  5  5  5  5  5
++         5  5  5  5  5  5  5  5  5  5  5  5  5  5  5  5  5
++         5  5  5  5  5  5  5  5  5  5  5  5  5  5  5  5  5
++         5  5  5  5  5  5  5  5  5  6  5  5  6  5  5  5  5
++         5  5  5  5  5  5  5  5  5  5  5  5  5  5  5  5  5
++         5  5  5  5  5  5  5  5  5  5  5 10  5  5  0  0  0
%c M  cc GPS ccc cccc cccc cccc cccc ccccc ccccc ccccc ccccc
%c cc cc ccc ccc cccc cccc cccc cccc ccccc ccccc ccccc ccccc
%f  1.2500000  1.025000000  0.00000000000  0.000000000000000
%f  0.0000000  0.000000000  0.00000000000  0.000000000000000
%i    0    0    0    0      0      0      0      0         0
%i    0    0    0    0      0      0      0      0         0
/* Center for Orbit Determination in Europe (CODE)                              
/* MGEX orbits and clocks for year-day 2022-0010                                
/* Middle day of a 3-day long-arc multi-GNSS solution                           
/* Systems considered: GPS/GLONASS/Galileo/BeiDou/QZSS                          
/* Product reference - DOI 10.7892/boris.75882.3                                
/* PCV:IGS14      OL/AL:FES2014b NONE     YN ORB:CoN CLK:CoN                    
*  2022  1  1  6 10  0.00000000
PG01  21233.220836  14277.308703  -8034.542648    468.905909
PG02  -1724.622166 -16189.724876  21632.644425   -647.417263
PG03  12667.830097  18481.481549  14239.783335    -61.450924
PG04  13979.513733   7991.789590  21135.700155   -196.875054
PG05  -5391.331435 -25920.873098   -473.322580    -66.364302
PG06  14833.290443  -8652.600331  20350.173893    158.314433
PG07  25398.358745   4930.591805  -6676.448526    297.241921
PG08   3888.582072  15713.098061 -21009.251183    -50.340957
PG09  21145.414871  -3123.477028  15711.506118   -359.159791
PG10 -12412.523587  11079.581190 -20497.749755   -282.497388
PG11    851.521037 -15908.605951  21250.980251     -1.950903
PG12 -10242.283813 -21045.395469  12424.621252   -149.226429
PG13   5164.382115 -18186.318953 -18745.803467    238.332249
PG14  13354.457679 -10497.449686 -20406.627357    -64.128123
PG15  -6680.607155 -15481.803251 -20869.116167    -94.882686
PG16     64.164143  26177.061504   2321.461118   -449.110293
PG17  22672.084996 -13380.905074  -3228.197262    555.348194
PG18 -24996.402451  -4365.821333  -8022.953700    269.227071
PG19  20241.882755 -16427.827169   4303.874034     99.720844
PG20     18.236152 -24649.958515  10214.239400    517.376829
PG21  15442.858923  15495.332896 -14785.130459    155.121365
PG22  11036.788148  23492.286560   6317.208290   -427.940675
PG23 -15420.488797  -1610.758068 -21591.031999     15.774124
PG24 -18859.696225 -14966.361188 -11948.671064    276.693373
PG25 -15213.790136  -9990.515372  19166.390239    264.326663
PG26  -6690.737309  20851.235764  14741.622204    170.330220
PG27  -6967.449594  19780.908768 -16246.251198     40.891069
PG28   9872.347495 -18417.289863 -15997.198597    431.371158
PG29 -19345.063954  -1384.270301  18132.406175   -461.533780
PG30  21658.729615  -3140.233601 -15144.059346   -503.570791
PG31 -13240.298844  10265.855295  20590.169245   -157.812607
PG32 -20584.234224  16619.961906   -191.098158    -43.596198
PR01 -13869.860156  18082.830640 -11470.624889      7.299036
PR02  -6415.468260  23133.847298   8560.036993    505.105768
PR03   4782.941429  13537.218846  21106.876471     49.139167
PR04  12869.628404  -3504.611160  21768.519766    121.525381
PR05  14081.427874 -18584.652782  10383.948298     85.175259
PR07  -5097.563725 -13041.303233 -21300.769747    -38.753489
PR08 -12952.813422   3567.342007 -21625.710072    -62.861040
PR09  -5917.173497 -20121.147074 -14454.737751     31.731941
PR11 -16593.868270  -8911.824512  17205.080087     47.977847
PR12  -7547.350570   8274.169515  22938.792757    291.236256
PR13   5281.704654  19666.916771  15339.065820    -16.449522
PR14  15683.714604  20001.573663  -2203.909304     72.724331
PR15  16375.597063   8469.099695 -17610.302784     99.196271
PR17  15090.783122   7423.541245 -19147.704234    488.622111
PR18  24998.271490    333.084976  -5174.616475    102.375323
PR19  22430.053009  -5925.718329  10605.737487   -172.785179
PR20   4679.746916 -10392.539221  22839.045072    -62.251092
PR21 -16329.980314  -6945.031134  18342.572290   -266.644454
PR22 -25096.556232    -55.968656   4269.209221   -155.193393
PR24  -3630.818463  10945.056454 -22730.360326     73.696708
PE01  16372.452207  19791.223011 -14696.416965   -550.175303
PE02 -16421.740702 -19695.187260  14806.538799    270.655898
PE03 -15336.427140  -8324.514224 -23918.747413   -512.382448
PE04  23614.301031 -10224.442778  14631.319849   -933.128603
PE05   2120.000560 -22333.704457 -19316.206299   -222.125148
PE07 -18109.132969  23150.212868   3527.707897   -623.668191
PE08 -23546.680045  10737.391393 -14380.233997   5879.449890
PE09  17891.877785 -23273.693945  -3758.537269   5410.386080
PE11  14073.836979 -12211.542646  23001.233152   4773.493010
PE12  28165.523931    195.561545   9132.185981   4832.334120
PE13 -14649.328443  11880.531645 -22801.664667    425.223624
PE14   -663.327113  23397.072313 -22613.255629  -1694.618350
PE15 -28188.986012   -235.675595  -9014.599146    771.931800
PE18  -2917.560415 -15467.394565  17406.284966  -1864.824360
PE19  13375.788895  10467.998027  24240.388015    466.435670
PE21   6999.505803  28647.874335   2465.638831   -708.624867
PE24   7858.642428 -20606.700981 -19770.646501  -1310.959580
PE25  -6846.555550 -28679.154870  -2695.256843   -558.779455
PE26   8482.413163  17113.427028 -22600.416179   -636.114408
PE27  -6972.137600  21500.664727  19106.179766   -199.598187
PE30 -17064.489455    395.530888  24177.755594   -155.962607
PE31  16710.387027  -1792.304922 -24358.348696   -490.140719
PE33  25066.947523  12150.508059 -10004.845256   -460.844784
PE36  -7413.460576 -16948.839534  23115.350713   -311.834661
PC06 -15393.351953  26166.739493  29149.344104    728.337085
PC07  -8854.291316  41150.405361   3416.681048     53.604202
PC08   1635.798557  26857.601523 -32383.974010     24.060978
PC09  -7255.212700  25770.912738  32779.377582   -396.862276
PC10  -4291.841786  42138.037560  -1920.524399    138.685614
PC11 -11734.898143 -12129.939149  22302.057848   -298.105074
PC12   8613.967750 -16491.011896  20836.747971   -431.201091
PC13   6123.899230  29680.012823 -29060.087983   -160.472887
PC14  -6445.188486 -21483.818748 -16553.828609    480.702669
PC16 -19861.137346  25487.153465  27091.131037     42.270976
PC19  12136.357242  12833.075453  21628.401643    915.435507
PC20    904.319541  25897.371528  10394.442541   -799.951655
PC21  11602.755966 -24150.430623   7790.551200   -956.005699
PC22  16782.627406  -8134.081232  20750.262292   -962.346634
PC23 -20972.617532  -2220.981927  18279.880608   -965.142998
PC24  -8720.203655 -22585.894340 -13920.689419   -947.810000
PC25 -22005.583613 -16726.963392   3928.214760   -801.509418
PC26   7207.681303 -15140.504064 -22323.283575    799.755629
PC27 -17673.836187  15487.959227 -15053.347889    654.234935
PC28 -27181.807280   6130.870560   1572.500737     15.567015
PC29  20913.624251   6182.324561 -17415.524489    495.324737
PC30   1986.263450  15945.509855 -22814.926820    490.083300
PC32 -11435.668271  24223.709441  -7814.858884   -957.012298
PC33 -12184.840104 -12849.130692 -21564.119020   -956.892325
PC34  -2974.008411 -15729.679090  22852.755938   -501.903530
PC35  27029.079950  -6673.926963  -2173.658898     72.429930
PC36  21437.065107  17511.945329  -3471.007901   -850.778293
PC37  -8575.299798  14131.059121  22491.902815   -928.063691
PC38  -7749.060933  23485.424556 -34105.621025    200.760368
PC39 -23123.029311  26054.900808  23634.633073     34.476237
PC40 -15544.968742  38400.835787   8245.831229    231.607921
PC41 -16774.777313   7759.429097 -20858.820426   -919.496832
PC42   -267.721317 -26220.292694  -9494.501689   -930.414233
PC43 -20425.744736  -6778.198909  17748.747646   -950.867898
PC44  17337.264243 -16115.268303  14801.783561    516.970452
PC45  20797.414610   2033.296867 -18482.992849    641.991549
PC46   9912.976119  22622.656545  12942.852613    -90.975621
PJ01 -27241.442442  30383.652664  -6115.309261    314.765135
PJ02 -25771.288225  23715.426192  28459.481437     -0.585293
PJ03 -32994.176805  19796.690094 -12391.734670    -11.218263
EOF
